CCSDS_OMM_VERS = 2.0
CREATION_DATE  = 
ORIGINATOR     = 

OBJECT_NAME    = STARLINK-36995
OBJECT_ID      = 2026-049B
CENTER_NAME    = EARTH
REF_FRAME      = TEME
TIME_SYSTEM    = UTC
MEAN_ELEMENT_THEORY = SGP/SGP4

EPOCH          = 2026-03-26T20:00:03.000384
MEAN_MOTION    = 15.80842359
ECCENTRICITY   = .0001401
INCLINATION    = 97.2837
RA_OF_ASC_NODE = 105.9053
ARG_OF_PERICENTER = 111.7748
MEAN_ANOMALY   = 325.4038

EPHEMERIS_TYPE = 0
CLASSIFICATION_TYPE = U
NORAD_CAT_ID   = 68143
ELEMENT_SET_NO = 999
REV_AT_EPOCH   = 337
BSTAR          = -.39381E-3
MEAN_MOTION_DOT = -.75022E-3
MEAN_MOTION_DDOT = 0

CCSDS_OMM_VERS = 2.0
CREATION_DATE  = 
ORIGINATOR     = 

OBJECT_NAME    = STARLINK-37020
OBJECT_ID      = 2026-049C
CENTER_NAME    = EARTH
REF_FRAME      = TEME
TIME_SYSTEM    = UTC
MEAN_ELEMENT_THEORY = SGP/SGP4

EPOCH          = 2026-03-26T06:00:02.000160
MEAN_MOTION    = 15.80809277
ECCENTRICITY   = .00009155
INCLINATION    = 97.2839
RA_OF_ASC_NODE = 105.2924
ARG_OF_PERICENTER = 102.5459
MEAN_ANOMALY   = 265.6625

EPHEMERIS_TYPE = 0
CLASSIFICATION_TYPE = U
NORAD_CAT_ID   = 68144
ELEMENT_SET_NO = 999
REV_AT_EPOCH   = 328
BSTAR          = -.16663619E-3
MEAN_MOTION_DOT = -.31933E-3
MEAN_MOTION_DDOT = 0

CCSDS_OMM_VERS = 2.0
CREATION_DATE  = 
ORIGINATOR     = 

OBJECT_NAME    = STARLINK-36244
OBJECT_ID      = 2026-049D
CENTER_NAME    = EARTH
REF_FRAME      = TEME
TIME_SYSTEM    = UTC
MEAN_ELEMENT_THEORY = SGP/SGP4

EPOCH          = 2026-03-26T20:00:03.000384
MEAN_MOTION    = 15.80632280
ECCENTRICITY   = .0001723
INCLINATION    = 97.2840
RA_OF_ASC_NODE = 105.9129
ARG_OF_PERICENTER = 88.9951
MEAN_ANOMALY   = 5.2530

EPHEMERIS_TYPE = 0
CLASSIFICATION_TYPE = U
NORAD_CAT_ID   = 68145
ELEMENT_SET_NO = 999
REV_AT_EPOCH   = 338
BSTAR          = -.11799E-1
MEAN_MOTION_DOT = -.1951204E-1
MEAN_MOTION_DDOT = 0

CCSDS_OMM_VERS = 2.0
CREATION_DATE  = 
ORIGINATOR     = 

OBJECT_NAME    = STARLINK-36980
OBJECT_ID      = 2026-049E
CENTER_NAME    = EARTH
REF_FRAME      = TEME
TIME_SYSTEM    = UTC
MEAN_ELEMENT_THEORY = SGP/SGP4

EPOCH          = 2026-03-26T20:00:03.000384
MEAN_MOTION    = 15.80838521
ECCENTRICITY   = .000185
INCLINATION    = 97.2838
RA_OF_ASC_NODE = 105.9107
ARG_OF_PERICENTER = 119.0137
MEAN_ANOMALY   = 330.9846

EPHEMERIS_TYPE = 0
CLASSIFICATION_TYPE = U
NORAD_CAT_ID   = 68146
ELEMENT_SET_NO = 999
REV_AT_EPOCH   = 337
BSTAR          = -.33913E-3
MEAN_MOTION_DOT = -.64695E-3
MEAN_MOTION_DDOT = 0

CCSDS_OMM_VERS = 2.0
CREATION_DATE  = 
ORIGINATOR     = 

OBJECT_NAME    = STARLINK-37055
OBJECT_ID      = 2026-049F
CENTER_NAME    = EARTH
REF_FRAME      = TEME
TIME_SYSTEM    = UTC
MEAN_ELEMENT_THEORY = SGP/SGP4

EPOCH          = 2026-03-26T20:00:03.000384
MEAN_MOTION    = 15.80821209
ECCENTRICITY   = .0001433
INCLINATION    = 97.2838
RA_OF_ASC_NODE = 105.9067
ARG_OF_PERICENTER = 110.9299
MEAN_ANOMALY   = 330.5297

EPHEMERIS_TYPE = 0
CLASSIFICATION_TYPE = U
NORAD_CAT_ID   = 68147
ELEMENT_SET_NO = 999
REV_AT_EPOCH   = 337
BSTAR          = -.18786E-3
MEAN_MOTION_DOT = -.35987E-3
MEAN_MOTION_DDOT = 0

CCSDS_OMM_VERS = 2.0
CREATION_DATE  = 
ORIGINATOR     = 

OBJECT_NAME    = STARLINK-36981
OBJECT_ID      = 2026-049G
CENTER_NAME    = EARTH
REF_FRAME      = TEME
TIME_SYSTEM    = UTC
MEAN_ELEMENT_THEORY = SGP/SGP4

EPOCH          = 2026-03-26T20:00:03.000384
MEAN_MOTION    = 15.80841165
ECCENTRICITY   = .0001704
INCLINATION    = 97.2839
RA_OF_ASC_NODE = 105.9143
ARG_OF_PERICENTER = 105.0658
MEAN_ANOMALY   = 353.4831

EPHEMERIS_TYPE = 0
CLASSIFICATION_TYPE = U
NORAD_CAT_ID   = 68148
ELEMENT_SET_NO = 999
REV_AT_EPOCH   = 337
BSTAR          = -.40893E-3
MEAN_MOTION_DOT = -.77871E-3
MEAN_MOTION_DDOT = 0

CCSDS_OMM_VERS = 2.0
CREATION_DATE  = 
ORIGINATOR     = 

OBJECT_NAME    = STARLINK-36992
OBJECT_ID      = 2026-049H
CENTER_NAME    = EARTH
REF_FRAME      = TEME
TIME_SYSTEM    = UTC
MEAN_ELEMENT_THEORY = SGP/SGP4

EPOCH          = 2026-03-26T20:00:03.000384
MEAN_MOTION    = 15.80864479
ECCENTRICITY   = .0001306
INCLINATION    = 97.2839
RA_OF_ASC_NODE = 105.9156
ARG_OF_PERICENTER = 58.7779
MEAN_ANOMALY   = 44.0454

EPHEMERIS_TYPE = 0
CLASSIFICATION_TYPE = U
NORAD_CAT_ID   = 68149
ELEMENT_SET_NO = 999
REV_AT_EPOCH   = 337
BSTAR          = -.6721E-3
MEAN_MOTION_DOT = -.127304E-2
MEAN_MOTION_DDOT = 0

CCSDS_OMM_VERS = 2.0
CREATION_DATE  = 
ORIGINATOR     = 

OBJECT_NAME    = STARLINK-37060
OBJECT_ID      = 2026-049J
CENTER_NAME    = EARTH
REF_FRAME      = TEME
TIME_SYSTEM    = UTC
MEAN_ELEMENT_THEORY = SGP/SGP4

EPOCH          = 2026-03-26T20:00:03.000384
MEAN_MOTION    = 15.80843743
ECCENTRICITY   = .000147
INCLINATION    = 97.2839
RA_OF_ASC_NODE = 105.9180
ARG_OF_PERICENTER = 74.4321
MEAN_ANOMALY   = 32.6698

EPHEMERIS_TYPE = 0
CLASSIFICATION_TYPE = U
NORAD_CAT_ID   = 68150
ELEMENT_SET_NO = 999
REV_AT_EPOCH   = 337
BSTAR          = -.49731E-3
MEAN_MOTION_DOT = -.94499E-3
MEAN_MOTION_DDOT = 0

CCSDS_OMM_VERS = 2.0
CREATION_DATE  = 
ORIGINATOR     = 

OBJECT_NAME    = STARLINK-37073
OBJECT_ID      = 2026-049K
CENTER_NAME    = EARTH
REF_FRAME      = TEME
TIME_SYSTEM    = UTC
MEAN_ELEMENT_THEORY = SGP/SGP4

EPOCH          = 2026-03-26T20:00:03.000384
MEAN_MOTION    = 15.80842896
ECCENTRICITY   = .0001416
INCLINATION    = 97.2839
RA_OF_ASC_NODE = 105.9193
ARG_OF_PERICENTER = 115.7639
MEAN_ANOMALY   = 355.6099

EPHEMERIS_TYPE = 0
CLASSIFICATION_TYPE = U
NORAD_CAT_ID   = 68151
ELEMENT_SET_NO = 999
REV_AT_EPOCH   = 337
BSTAR          = -.43555E-3
MEAN_MOTION_DOT = -.82887E-3
MEAN_MOTION_DDOT = 0

CCSDS_OMM_VERS = 2.0
CREATION_DATE  = 
ORIGINATOR     = 

OBJECT_NAME    = STARLINK-37049
OBJECT_ID      = 2026-049L
CENTER_NAME    = EARTH
REF_FRAME      = TEME
TIME_SYSTEM    = UTC
MEAN_ELEMENT_THEORY = SGP/SGP4

EPOCH          = 2026-03-26T20:00:03.000384
MEAN_MOTION    = 15.80832801
ECCENTRICITY   = .0001424
INCLINATION    = 97.2839
RA_OF_ASC_NODE = 105.9212
ARG_OF_PERICENTER = 95.8287
MEAN_ANOMALY   = 19.8070

EPHEMERIS_TYPE = 0
CLASSIFICATION_TYPE = U
NORAD_CAT_ID   = 68152
ELEMENT_SET_NO = 999
REV_AT_EPOCH   = 337
BSTAR          = -.22783E-3
MEAN_MOTION_DOT = -.43599E-3
MEAN_MOTION_DDOT = 0

CCSDS_OMM_VERS = 2.0
CREATION_DATE  = 
ORIGINATOR     = 

OBJECT_NAME    = STARLINK-37072
OBJECT_ID      = 2026-049M
CENTER_NAME    = EARTH
REF_FRAME      = TEME
TIME_SYSTEM    = UTC
MEAN_ELEMENT_THEORY = SGP/SGP4

EPOCH          = 2026-03-26T20:00:03.000384
MEAN_MOTION    = 15.80832204
ECCENTRICITY   = .000146
INCLINATION    = 97.2840
RA_OF_ASC_NODE = 105.9225
ARG_OF_PERICENTER = 108.1671
MEAN_ANOMALY   = 11.7505

EPHEMERIS_TYPE = 0
CLASSIFICATION_TYPE = U
NORAD_CAT_ID   = 68153
ELEMENT_SET_NO = 999
REV_AT_EPOCH   = 337
BSTAR          = -.27504E-3
MEAN_MOTION_DOT = -.52549E-3
MEAN_MOTION_DDOT = 0

CCSDS_OMM_VERS = 2.0
CREATION_DATE  = 
ORIGINATOR     = 

OBJECT_NAME    = STARLINK-36241
OBJECT_ID      = 2026-049N
CENTER_NAME    = EARTH
REF_FRAME      = TEME
TIME_SYSTEM    = UTC
MEAN_ELEMENT_THEORY = SGP/SGP4

EPOCH          = 2026-03-26T20:00:03.000384
MEAN_MOTION    = 15.78071219
ECCENTRICITY   = .0001862
INCLINATION    = 97.2838
RA_OF_ASC_NODE = 105.9263
ARG_OF_PERICENTER = 74.0329
MEAN_ANOMALY   = 51.2101

EPHEMERIS_TYPE = 0
CLASSIFICATION_TYPE = U
NORAD_CAT_ID   = 68154
ELEMENT_SET_NO = 999
REV_AT_EPOCH   = 338
BSTAR          = -.13003E-1
MEAN_MOTION_DOT = -.1918227E-1
MEAN_MOTION_DDOT = 0

