STARLINK-36995          
1 68143U 26049B   26085.83336806 -.00075022  00000+0 -39381-3 0  9995
2 68143  97.2837 105.9053 0001401 111.7748 325.4038 15.80842359  3371
STARLINK-37020          
1 68144U 26049C   26085.25002315 -.00031933  00000+0 -16664-3 0  9999
2 68144  97.2839 105.2924 0000915 102.5459 265.6625 15.80809277  3289
STARLINK-36244          
1 68145U 26049D   26085.83336806 -.01951204  00000+0 -11799-1 0  9994
2 68145  97.2840 105.9129 0001723  88.9951   5.2530 15.80632280  3380
STARLINK-36980          
1 68146U 26049E   26085.83336806 -.00064695  00000+0 -33913-3 0  9997
2 68146  97.2838 105.9107 0001850 119.0137 330.9846 15.80838521  3370
STARLINK-37055          
1 68147U 26049F   26085.83336806 -.00035987  00000+0 -18786-3 0  9991
2 68147  97.2838 105.9067 0001433 110.9299 330.5297 15.80821209  3373
STARLINK-36981          
1 68148U 26049G   26085.83336806 -.00077871  00000+0 -40893-3 0  9994
2 68148  97.2839 105.9143 0001704 105.0658 353.4831 15.80841165  3376
STARLINK-36992          
1 68149U 26049H   26085.83336806 -.00127304  00000+0 -67210-3 0  9994
2 68149  97.2839 105.9156 0001306  58.7779  44.0454 15.80864479  3374
STARLINK-37060          
1 68150U 26049J   26085.83336806 -.00094499  00000+0 -49731-3 0  9992
2 68150  97.2839 105.9180 0001470  74.4321  32.6698 15.80843743  3377
STARLINK-37073          
1 68151U 26049K   26085.83336806 -.00082887  00000+0 -43555-3 0  9999
2 68151  97.2839 105.9193 0001416 115.7639 355.6099 15.80842896  3374
STARLINK-37049          
1 68152U 26049L   26085.83336806 -.00043599  00000+0 -22783-3 0  9997
2 68152  97.2839 105.9212 0001424  95.8287  19.8070 15.80832801  3376
STARLINK-37072          
1 68153U 26049M   26085.83336806 -.00052549  00000+0 -27504-3 0  9999
2 68153  97.2840 105.9225 0001460 108.1671  11.7505 15.80832204  3379
STARLINK-36241          
1 68154U 26049N   26085.83336806 -.01918227  00000+0 -13003-1 0  9992
2 68154  97.2838 105.9263 0001862  74.0329  51.2101 15.78071219  3386
